{
  "type": "FeatureCollection",
  "features": [
    {
      "type": "Feature",
      "properties": {
        "norad_id": 67012,
        "name": "STARLINK-36175",
        "group": "last-30-days",
        "lat": 2.5460354866787376,
        "lon": -64.46370347852822,
        "alt_km": 315.1112966563942,
        "timestamp": "2025-12-22T18:58:52.141420+00:00",
        "meta_object_name": "STARLINK-36175",
        "meta_object_id": "2025-293K",
        "meta_epoch": "2025-12-22T06:00:02.000160",
        "meta_mean_motion": 15.88097072,
        "meta_eccentricity": 0.0003593,
        "meta_inclination": 69.9936,
        "meta_ra_of_asc_node": 296.1675,
        "meta_arg_of_pericenter": 262.8903,
        "meta_mean_anomaly": 250.376,
        "meta_ephemeris_type": 0,
        "meta_classification_type": "U",
        "meta_norad_cat_id": 67012,
        "meta_element_set_no": 999,
        "meta_rev_at_epoch": 164,
        "meta_bstar": -0.0060507756,
        "meta_mean_motion_dot": -0.01441818,
        "meta_mean_motion_ddot": 0,
        "tle_line1": "1 67012U 25293K   25356.25002315 -.01441818  00000+0 -60508-2 0  9995",
        "tle_line2": "2 67012  69.9936 296.1675 0003593 262.8903 250.3760 15.88097072  1647"
      },
      "geometry": {
        "type": "Point",
        "coordinates": [
          -64.46370347852822,
          2.5460354866787376
        ]
      }
    },
    {
      "type": "Feature",
      "properties": {
        "norad_id": 67013,
        "name": "STARLINK-35856",
        "group": "last-30-days",
        "lat": 5.085273097149718,
        "lon": -63.53747856533043,
        "alt_km": 314.9835076754489,
        "timestamp": "2025-12-22T18:58:52.141432+00:00",
        "meta_object_name": "STARLINK-35856",
        "meta_object_id": "2025-293L",
        "meta_epoch": "2025-12-22T06:00:02.000160",
        "meta_mean_motion": 15.88076968,
        "meta_eccentricity": 0.00036257,
        "meta_inclination": 69.9933,
        "meta_ra_of_asc_node": 296.1639,
        "meta_arg_of_pericenter": 261.839,
        "meta_mean_anomaly": 254.1736,
        "meta_ephemeris_type": 0,
        "meta_classification_type": "U",
        "meta_norad_cat_id": 67013,
        "meta_element_set_no": 999,
        "meta_rev_at_epoch": 164,
        "meta_bstar": -0.0060736473,
        "meta_mean_motion_dot": -0.0144532,
        "meta_mean_motion_ddot": 0,
        "tle_line1": "1 67013U 25293L   25356.25002315 -.01445320  00000+0 -60736-2 0  9991",
        "tle_line2": "2 67013  69.9933 296.1639 0003625 261.8390 254.1736 15.88076968  1646"
      },
      "geometry": {
        "type": "Point",
        "coordinates": [
          -63.53747856533043,
          5.085273097149718
        ]
      }
    },
    {
      "type": "Feature",
      "properties": {
        "norad_id": 67014,
        "name": "STARLINK-36207",
        "group": "last-30-days",
        "lat": 7.4832247422849765,
        "lon": -62.655114070431935,
        "alt_km": 314.3920609391853,
        "timestamp": "2025-12-22T18:58:52.141444+00:00",
        "meta_object_name": "STARLINK-36207",
        "meta_object_id": "2025-293M",
        "meta_epoch": "2025-12-22T06:00:02.000160",
        "meta_mean_motion": 15.88081583,
        "meta_eccentricity": 0.00041934,
        "meta_inclination": 69.9938,
        "meta_ra_of_asc_node": 296.1611,
        "meta_arg_of_pericenter": 271.4679,
        "meta_mean_anomaly": 247.093,
        "meta_ephemeris_type": 0,
        "meta_classification_type": "U",
        "meta_norad_cat_id": 67014,
        "meta_element_set_no": 999,
        "meta_rev_at_epoch": 170,
        "meta_bstar": -0.0061153847,
        "meta_mean_motion_dot": -0.01454868,
        "meta_mean_motion_ddot": 0,
        "tle_line1": "1 67014U 25293M   25356.25002315 -.01454868  00000+0 -61154-2 0  9994",
        "tle_line2": "2 67014  69.9938 296.1611 0004193 271.4679 247.0930 15.88081583  1703"
      },
      "geometry": {
        "type": "Point",
        "coordinates": [
          -62.655114070431935,
          7.4832247422849765
        ]
      }
    },
    {
      "type": "Feature",
      "properties": {
        "norad_id": 67015,
        "name": "STARLINK-36093",
        "group": "last-30-days",
        "lat": 12.188458192421319,
        "lon": -60.890592034269815,
        "alt_km": 314.0148123179997,
        "timestamp": "2025-12-22T18:58:52.141456+00:00",
        "meta_object_name": "STARLINK-36093",
        "meta_object_id": "2025-293N",
        "meta_epoch": "2025-12-22T06:00:02.000160",
        "meta_mean_motion": 15.88051139,
        "meta_eccentricity": 0.00043915,
        "meta_inclination": 69.9932,
        "meta_ra_of_asc_node": 296.1548,
        "meta_arg_of_pericenter": 272.294,
        "meta_mean_anomaly": 251.3461,
        "meta_ephemeris_type": 0,
        "meta_classification_type": "U",
        "meta_norad_cat_id": 67015,
        "meta_element_set_no": 999,
        "meta_rev_at_epoch": 164,
        "meta_bstar": -0.0061487349,
        "meta_mean_motion_dot": -0.01460046,
        "meta_mean_motion_ddot": 0,
        "tle_line1": "1 67015U 25293N   25356.25002315 -.01460046  00000+0 -61487-2 0  9999",
        "tle_line2": "2 67015  69.9932 296.1548 0004391 272.2940 251.3461 15.88051139  1641"
      },
      "geometry": {
        "type": "Point",
        "coordinates": [
          -60.890592034269815,
          12.188458192421319
        ]
      }
    },
    {
      "type": "Feature",
      "properties": {
        "norad_id": 67016,
        "name": "STARLINK-36120",
        "group": "last-30-days",
        "lat": 9.705231135783093,
        "lon": -61.8285523151906,
        "alt_km": 314.2842774680548,
        "timestamp": "2025-12-22T18:58:52.141466+00:00",
        "meta_object_name": "STARLINK-36120",
        "meta_object_id": "2025-293P",
        "meta_epoch": "2025-12-22T06:00:02.000160",
        "meta_mean_motion": 15.88069298,
        "meta_eccentricity": 0.00043294,
        "meta_inclination": 69.9934,
        "meta_ra_of_asc_node": 296.1581,
        "meta_arg_of_pericenter": 270.4516,
        "meta_mean_anomaly": 250.5008,
        "meta_ephemeris_type": 0,
        "meta_classification_type": "U",
        "meta_norad_cat_id": 67016,
        "meta_element_set_no": 999,
        "meta_rev_at_epoch": 164,
        "meta_bstar": -0.0061245358,
        "meta_mean_motion_dot": -0.01456138,
        "meta_mean_motion_ddot": 0,
        "tle_line1": "1 67016U 25293P   25356.25002315 -.01456138  00000+0 -61245-2 0  9999",
        "tle_line2": "2 67016  69.9934 296.1581 0004329 270.4516 250.5008 15.88069298  1644"
      },
      "geometry": {
        "type": "Point",
        "coordinates": [
          -61.8285523151906,
          9.705231135783093
        ]
      }
    },
    {
      "type": "Feature",
      "properties": {
        "norad_id": 67017,
        "name": "STARLINK-35498",
        "group": "last-30-days",
        "lat": 14.501243835686658,
        "lon": -59.99991839505178,
        "alt_km": 314.48815124275734,
        "timestamp": "2025-12-22T18:58:52.141476+00:00",
        "meta_object_name": "STARLINK-35498",
        "meta_object_id": "2025-293Q",
        "meta_epoch": "2025-12-22T06:00:02.000160",
        "meta_mean_motion": 15.8835481,
        "meta_eccentricity": 0.00039439,
        "meta_inclination": 69.9932,
        "meta_ra_of_asc_node": 296.1517,
        "meta_arg_of_pericenter": 276.2186,
        "meta_mean_anomaly": 249.9632,
        "meta_ephemeris_type": 0,
        "meta_classification_type": "U",
        "meta_norad_cat_id": 67017,
        "meta_element_set_no": 999,
        "meta_rev_at_epoch": 183,
        "meta_bstar": -0.0084778988,
        "meta_mean_motion_dot": -0.02040212,
        "meta_mean_motion_ddot": 0,
        "tle_line1": "1 67017U 25293Q   25356.25002315 -.02040212  00000+0 -84779-2 0  9990",
        "tle_line2": "2 67017  69.9932 296.1517 0003943 276.2186 249.9632 15.88354810  1833"
      },
      "geometry": {
        "type": "Point",
        "coordinates": [
          -59.99991839505178,
          14.501243835686658
        ]
      }
    },
    {
      "type": "Feature",
      "properties": {
        "norad_id": 67018,
        "name": "STARLINK-36106",
        "group": "last-30-days",
        "lat": 16.819879087413412,
        "lon": -59.08678204825264,
        "alt_km": 314.2428295867303,
        "timestamp": "2025-12-22T18:58:52.141488+00:00",
        "meta_object_name": "STARLINK-36106",
        "meta_object_id": "2025-293R",
        "meta_epoch": "2025-12-22T06:00:02.000160",
        "meta_mean_motion": 15.8830521,
        "meta_eccentricity": 0.00039275,
        "meta_inclination": 69.9929,
        "meta_ra_of_asc_node": 296.1485,
        "meta_arg_of_pericenter": 275.7881,
        "meta_mean_anomaly": 252.9171,
        "meta_ephemeris_type": 0,
        "meta_classification_type": "U",
        "meta_norad_cat_id": 67018,
        "meta_element_set_no": 999,
        "meta_rev_at_epoch": 175,
        "meta_bstar": -0.0083033426,
        "meta_mean_motion_dot": -0.01999382,
        "meta_mean_motion_ddot": 0,
        "tle_line1": "1 67018U 25293R   25356.25002315 -.01999382  00000+0 -83033-2 0  9993",
        "tle_line2": "2 67018  69.9929 296.1485 0003927 275.7881 252.9171 15.88305210  1755"
      },
      "geometry": {
        "type": "Point",
        "coordinates": [
          -59.08678204825264,
          16.819879087413412
        ]
      }
    }
  ]
}